IRIDIUM 136             
1 42962U 17061H   23263.91253572  .00000155  00000+0  48178-4 0  9990
2 42962  86.3915  83.2864 0002336  89.8348 270.3115 14.34217757311467
